[{"OBJECT_NAME":"GEESAT-6 04","OBJECT_ID":"2025-214E","EPOCH":"2026-03-09T23:39:16.844832","MEAN_MOTION":14.829845,"ECCENTRICITY":0.00094543,"INCLINATION":49.9846,"RA_OF_ASC_NODE":47.7418,"ARG_OF_PERICENTER":207.5517,"MEAN_ANOMALY":152.4921,"EPHEMERIS_TYPE":0,"CLASSIFICATION_TYPE":"U","NORAD_CAT_ID":65716,"ELEMENT_SET_NO":999,"REV_AT_EPOCH":2478,"BSTAR":0.00038451427,"MEAN_MOTION_DOT":2.934e-5,"MEAN_MOTION_DDOT":0},{"OBJECT_NAME":"SL-14 R\/B","OBJECT_ID":"1986-055B","EPOCH":"2026-03-09T16:18:40.903776","MEAN_MOTION":14.85642641,"ECCENTRICITY":0.00181921,"INCLINATION":82.5202,"RA_OF_ASC_NODE":126.6837,"ARG_OF_PERICENTER":336.5476,"MEAN_ANOMALY":145.9532,"EPHEMERIS_TYPE":0,"CLASSIFICATION_TYPE":"U","NORAD_CAT_ID":16882,"ELEMENT_SET_NO":999,"REV_AT_EPOCH":11936,"BSTAR":5.7455179e-5,"MEAN_MOTION_DOT":5.23e-6,"MEAN_MOTION_DDOT":0}]
